1 27424U 02022A   10015.52644713 +.00000015 +00000-0 +13382-4 0 05379
2 27424 098.2031 319.2957 0000930 109.3205 250.8078 14.57115139409686